#aV2013  6 24  0  0  0.00000000     288 DD+AD WGS84 FIT  NGA
## 1746  86400.00000000   300.00000000 56467 0.0000000000000
+   31     1  2  3  4  5  6  7  8  9 10 11 12 13 14 15 16 17
+         18 19 20 21 22 23 24 25 26 27 28 29 31 32  0  0  0
+          0  0  0  0  0  0  0  0  0  0  0  0  0  0  0  0  0
+          0  0  0  0  0  0  0  0  0  0  0  0  0  0  0  0  0
+          0  0  0  0  0  0  0  0  0  0  0  0  0  0  0  0  0
++         2  2  2  2  2  2  2  2  2  2  2  2  2  2  2  2  2
++         2  2  2  2  2  2  2  2  2  2  2  2  2  2  2  0  0
++         0  0  0  0  0  0  0  0  0  0  0  0  0  0  0  0  0
++         0  0  0  0  0  0  0  0  0  0  0  0  0  0  0  0  0
++         0  0  0  0  0  0  0  0  0  0  0  0  0  0  0  0  0
%c cc cc ccc ccc cccc cccc cccc cccc ccccc ccccc ccccc ccccc
%c cc cc ccc ccc cccc cccc cccc cccc ccccc ccccc ccccc ccccc
%f  0.0000000  0.000000000  0.00000000000  0.000000000000000
%f  0.0000000  0.000000000  0.00000000000  0.000000000000000
%i    0    0    0    0      0      0      0      0         0
%i    0    0    0    0      0      0      0      0         0
/*      NGA, ST. LOUIS,MO.                                  
/*   EPHEMERIS COMPUTED FROM  1 DAYS OF DATA
/*   EPOCHA SMOOTHER  
/* CCCCCCCCCCCCCCCCCCCCCCCCCCCCCCCCCCCCCCCCCCCCCCCCCCCCCCCCC
*  2013  6 24  9 20  0.00000000                                                 
P  1 -13700.208398  19881.147815  10945.073165     41.400831                    
V  1   1424.355916 -14114.982866  27469.675372      0.046896                    
P  2  15023.453409   4185.333357 -21282.601377    438.537545                    
V  2  -6845.330450  26762.437239    -78.667763      0.018090                    
P  3 -22478.662139  -5602.879070  12658.443086    224.130156                    
V  3 -11568.993355 -12642.351588 -24902.161608      0.048062                    
P  4  10461.120548  15168.082738 -19314.827203    254.249314                    
V  4  -8129.104666  22752.127292  13941.743155      0.102544                    
P  5  25531.968913   -838.418260  -7561.106940   -397.557645                    
V  5  -8551.005401   5138.244891 -29398.592073     -0.006643                    
P  6 -22411.808453 -11552.337766   9005.125272    173.482885                    
V  6  -6433.075552  -9638.567561 -28246.463091     -0.171458                    
P  7  -5320.038041  25601.067648   3635.436536    228.608274                    
V  7  -3826.289183   3629.696998 -31828.183256      0.042237                    
P  8    622.132925  22284.919114  14063.177758      6.964636                    
V  8  -8319.519096  15875.632634 -25562.036790      0.002004                    
P  9   7373.981470  17591.411395  17877.247185    249.919213                    
V  9  -7853.031625  22541.042942 -18466.998984      0.025644                    
P 10  14851.243058  11063.874315 -19475.706785    -84.606906                    
V 10 -23143.087882   6599.026585 -13697.783540     -0.013390                    
P 11 -13661.237048  14318.422597  17156.848015   -394.533460                    
V 11  -3416.598108 -22975.548869  16310.979603     -0.035678                    
P 12  22676.398196 -10665.116117  -8517.361582    141.080718                    
V 12  10983.159893   -251.461353  29902.382421      0.021113                    
P 13   -856.285173  19005.996302 -18613.500300    106.490179                    
V 13 -15398.672281 -17588.951465 -17511.544991     -0.036774                    
P 14 -14907.110600 -21793.342478   3769.731806    220.047202                    
V 14   4586.166848   2039.473793  31480.235807     -0.003304                    
P 15  15688.745391  -5740.800956  20669.384322   -124.672157                    
V 15  18279.874844  18967.304846  -8337.981175     -0.016285                    
P 16 -25512.884744   -416.840236  -8009.597550   -251.002724                    
V 16   9515.978355  -3528.241408 -29898.442823      0.004199                    
P 17  14872.541661  21676.899874   4811.512086      5.810791                    
V 17  -5620.185025  -2746.765212  30945.073034     -0.038729                    
P 18   1526.463243 -16636.056382  21009.989059    260.242112                    
V 18  25383.754978  -5388.970024  -6591.127901      0.018502                    
P 19 -17741.141016   -112.980705  19800.565335   -383.537490                    
V 19 -15043.331592 -20261.027914 -13108.279830     -0.029739                    
P 20 -18381.915627  15046.079046 -11981.267131    105.401876                    
V 20 -15329.923178   1365.028059  25671.642998      0.021932                    
P 21   1314.197417 -25290.049355   7631.223305   -304.819520                    
V 21   6185.165908  -7720.680973 -29346.737213     -0.020216                    
P 22 -11302.436368 -13059.688096  20408.618194    172.894649                    
V 22  24582.504906  -7159.196239   8974.530851      0.013232                    
P 23  -9252.239933  12339.378727 -21519.778764     73.236221                    
V 23 -19262.791867 -19709.925603  -3406.094246     -0.035595                    
P 24  14869.579074 -16980.223142  13954.720946     -8.799583                    
V 24  -2577.692767  17717.985784  24323.167106     -0.007250                    
P 25  12101.505953 -15590.793341 -17784.982914    113.444097                    
V 25  22136.227530  -4149.313833  18854.556013      0.048015                    
P 26  19990.089025   9883.068007  14032.208417     67.613299                    
V 26  10404.211657  15704.443821 -24450.644660      0.162843                    
P 27 -21377.971953  -9013.445726  12931.946990     -3.911395                    
V 27  -9824.916427 -13358.457265 -25536.651660     -0.030651                    
P 28   6780.692915  13796.296551  22261.260013    270.028480                    
V 28 -26285.184866   5167.372494   4763.215212      0.032946                    
P 29   1442.460447 -18362.235774 -19104.111767    447.733198                    
V 29  16980.840936  17468.795113 -15423.387280      0.033332                    
P 31  -9347.187658 -14641.015929 -19836.900738    318.703393                    
V 31   8727.455934 -24087.910427  13822.375578      0.011636                    
P 32 -24591.482043   7636.249011  -5123.961537   -559.032618                    
V 32  -7253.585959  -2457.877729  30912.756304      0.001978                    
EOF
